{
  "type": "FeatureCollection",
  "features": [
    {
      "type": "Feature",
      "properties": {
        "norad_id": 55973,
        "name": "TIANMU-1 03",
        "group": "weather",
        "lat": -35.54898742998058,
        "lon": -41.03379981560228,
        "alt_km": 452.7871060260304,
        "timestamp": "2025-12-07T20:38:13.723535+00:00",
        "meta_object_name": "TIANMU-1 03",
        "meta_object_id": "2023-039A",
        "meta_epoch": "2025-12-07T05:40:29.849376",
        "meta_mean_motion": 15.4068462,
        "meta_eccentricity": 0.00045249,
        "meta_inclination": 97.511,
        "meta_ra_of_asc_node": 143.7358,
        "meta_arg_of_pericenter": 76.886,
        "meta_mean_anomaly": 283.289,
        "meta_ephemeris_type": 0,
        "meta_classification_type": "U",
        "meta_norad_cat_id": 55973,
        "meta_element_set_no": 999,
        "meta_rev_at_epoch": 15121,
        "meta_bstar": 0.00055497117,
        "meta_mean_motion_dot": 0.00022605,
        "meta_mean_motion_ddot": 0,
        "tle_line1": "1 55973U 23039A   25341.23645659  .00022605  00000+0  55497-3 0  9998",
        "tle_line2": "2 55973  97.5110 143.7358 0004524  76.8860 283.2890 15.40684620151213"
      },
      "geometry": {
        "type": "Point",
        "coordinates": [
          -41.03379981560228,
          -35.54898742998058
        ]
      }
    },
    {
      "type": "Feature",
      "properties": {
        "norad_id": 55974,
        "name": "TIANMU-1 04",
        "group": "weather",
        "lat": -35.94942875667135,
        "lon": 149.05479899544105,
        "alt_km": 450.4152657638688,
        "timestamp": "2025-12-07T20:38:13.723553+00:00",
        "meta_object_name": "TIANMU-1 04",
        "meta_object_id": "2023-039B",
        "meta_epoch": "2025-12-07T05:12:37.096128",
        "meta_mean_motion": 15.41016668,
        "meta_eccentricity": 0.00052009,
        "meta_inclination": 97.5042,
        "meta_ra_of_asc_node": 142.9091,
        "meta_arg_of_pericenter": 72.4933,
        "meta_mean_anomaly": 287.6881,
        "meta_ephemeris_type": 0,
        "meta_classification_type": "U",
        "meta_norad_cat_id": 55974,
        "meta_element_set_no": 999,
        "meta_rev_at_epoch": 15121,
        "meta_bstar": 0.00056984361,
        "meta_mean_motion_dot": 0.00023475,
        "meta_mean_motion_ddot": 0,
        "tle_line1": "1 55974U 23039B   25341.21709602  .00023475  00000+0  56984-3 0  9994",
        "tle_line2": "2 55974  97.5042 142.9091 0005200  72.4933 287.6881 15.41016668151218"
      },
      "geometry": {
        "type": "Point",
        "coordinates": [
          149.05479899544105,
          -35.94942875667135
        ]
      }
    },
    {
      "type": "Feature",
      "properties": {
        "norad_id": 55975,
        "name": "TIANMU-1 05",
        "group": "weather",
        "lat": 2.173833683427787,
        "lon": 143.77454637598944,
        "alt_km": 446.90807698888784,
        "timestamp": "2025-12-07T20:38:13.723563+00:00",
        "meta_object_name": "TIANMU-1 05",
        "meta_object_id": "2023-039C",
        "meta_epoch": "2025-12-07T06:35:54.835872",
        "meta_mean_motion": 15.40644523,
        "meta_eccentricity": 0.00043745,
        "meta_inclination": 97.5088,
        "meta_ra_of_asc_node": 143.4607,
        "meta_arg_of_pericenter": 93.5526,
        "meta_mean_anomaly": 266.6221,
        "meta_ephemeris_type": 0,
        "meta_classification_type": "U",
        "meta_norad_cat_id": 55975,
        "meta_element_set_no": 999,
        "meta_rev_at_epoch": 15120,
        "meta_bstar": 0.00055901574,
        "meta_mean_motion_dot": 0.0002274,
        "meta_mean_motion_ddot": 0,
        "tle_line1": "1 55975U 23039C   25341.27494023  .00022740  00000+0  55902-3 0  9992",
        "tle_line2": "2 55975  97.5088 143.4607 0004374  93.5526 266.6221 15.40644523151201"
      },
      "geometry": {
        "type": "Point",
        "coordinates": [
          143.77454637598944,
          2.173833683427787
        ]
      }
    },
    {
      "type": "Feature",
      "properties": {
        "norad_id": 55976,
        "name": "TIANMU-1 06",
        "group": "weather",
        "lat": -48.6814109444595,
        "lon": 153.15315861501827,
        "alt_km": 452.0777309984451,
        "timestamp": "2025-12-07T20:38:13.723573+00:00",
        "meta_object_name": "TIANMU-1 06",
        "meta_object_id": "2023-039D",
        "meta_epoch": "2025-12-07T05:16:01.168608",
        "meta_mean_motion": 15.41068958,
        "meta_eccentricity": 0.0004685,
        "meta_inclination": 97.51,
        "meta_ra_of_asc_node": 143.8641,
        "meta_arg_of_pericenter": 88.9502,
        "meta_mean_anomaly": 271.2281,
        "meta_ephemeris_type": 0,
        "meta_classification_type": "U",
        "meta_norad_cat_id": 55976,
        "meta_element_set_no": 999,
        "meta_rev_at_epoch": 15121,
        "meta_bstar": 0.00055605124,
        "meta_mean_motion_dot": 0.0002294,
        "meta_mean_motion_ddot": 0,
        "tle_line1": "1 55976U 23039D   25341.21945797  .00022940  00000+0  55605-3 0  9998",
        "tle_line2": "2 55976  97.5100 143.8641 0004685  88.9502 271.2281 15.41068958151218"
      },
      "geometry": {
        "type": "Point",
        "coordinates": [
          153.15315861501827,
          -48.6814109444595
        ]
      }
    },
    {
      "type": "Feature",
      "properties": {
        "norad_id": 56232,
        "name": "FENGYUN 3G",
        "group": "weather",
        "lat": 31.549870797341672,
        "lon": 41.584464893165425,
        "alt_km": 396.95868821941895,
        "timestamp": "2025-12-07T20:38:13.723586+00:00",
        "meta_object_name": "FENGYUN 3G",
        "meta_object_id": "2023-055A",
        "meta_epoch": "2025-12-07T06:09:17.858016",
        "meta_mean_motion": 15.53165654,
        "meta_eccentricity": 0.00092444,
        "meta_inclination": 49.994,
        "meta_ra_of_asc_node": 255.7412,
        "meta_arg_of_pericenter": 122.3783,
        "meta_mean_anomaly": 237.8081,
        "meta_ephemeris_type": 0,
        "meta_classification_type": "U",
        "meta_norad_cat_id": 56232,
        "meta_element_set_no": 999,
        "meta_rev_at_epoch": 15017,
        "meta_bstar": 0.00072207278,
        "meta_mean_motion_dot": 0.00046093,
        "meta_mean_motion_ddot": 0,
        "tle_line1": "1 56232U 23055A   25341.25645669  .00046093  00000+0  72207-3 0  9993",
        "tle_line2": "2 56232  49.9940 255.7412 0009244 122.3783 237.8081 15.53165654150170"
      },
      "geometry": {
        "type": "Point",
        "coordinates": [
          41.584464893165425,
          31.549870797341672
        ]
      }
    },
    {
      "type": "Feature",
      "properties": {
        "norad_id": 57166,
        "name": "METEOR-M2 3",
        "group": "weather",
        "lat": 79.9824335170036,
        "lon": -23.901619604285596,
        "alt_km": 802.9808145782017,
        "timestamp": "2025-12-07T20:38:13.723597+00:00",
        "meta_object_name": "METEOR-M2 3",
        "meta_object_id": "2023-091A",
        "meta_epoch": "2025-12-07T06:44:58.623648",
        "meta_mean_motion": 14.24025146,
        "meta_eccentricity": 0.00042047,
        "meta_inclination": 98.6386,
        "meta_ra_of_asc_node": 34.9158,
        "meta_arg_of_pericenter": 23.7522,
        "meta_mean_anomaly": 336.385,
        "meta_ephemeris_type": 0,
        "meta_classification_type": "U",
        "meta_norad_cat_id": 57166,
        "meta_element_set_no": 999,
        "meta_rev_at_epoch": 12720,
        "meta_bstar": 4.8237496e-05,
        "meta_mean_motion_dot": 6.7e-07,
        "meta_mean_motion_ddot": 0,
        "tle_line1": "1 57166U 23091A   25341.28123407  .00000067  00000+0  48237-4 0  9992",
        "tle_line2": "2 57166  98.6386  34.9158 0004204  23.7522 336.3850 14.24025146127207"
      },
      "geometry": {
        "type": "Point",
        "coordinates": [
          -23.901619604285596,
          79.9824335170036
        ]
      }
    },
    {
      "type": "Feature",
      "properties": {
        "norad_id": 57399,
        "name": "TIANMU-1 07",
        "group": "weather",
        "lat": -67.14453552983409,
        "lon": -165.85767406605746,
        "alt_km": 492.66035318914055,
        "timestamp": "2025-12-07T20:38:13.723607+00:00",
        "meta_object_name": "TIANMU-1 07",
        "meta_object_id": "2023-101A",
        "meta_epoch": "2025-12-07T05:24:31.364928",
        "meta_mean_motion": 15.27953043,
        "meta_eccentricity": 0.00056132,
        "meta_inclination": 97.2879,
        "meta_ra_of_asc_node": 31.1973,
        "meta_arg_of_pericenter": 95.4546,
        "meta_mean_anomaly": 264.7334,
        "meta_ephemeris_type": 0,
        "meta_classification_type": "U",
        "meta_norad_cat_id": 57399,
        "meta_element_set_no": 999,
        "meta_rev_at_epoch": 13231,
        "meta_bstar": 0.00042182074,
        "meta_mean_motion_dot": 0.00011444,
        "meta_mean_motion_ddot": 0,
        "tle_line1": "1 57399U 23101A   25341.22536302  .00011444  00000+0  42182-3 0  9991",
        "tle_line2": "2 57399  97.2879  31.1973 0005613  95.4546 264.7334 15.27953043132317"
      },
      "geometry": {
        "type": "Point",
        "coordinates": [
          -165.85767406605746,
          -67.14453552983409
        ]
      }
    }
  ]
}